NORAD_CAT_ID,OBJECT_NAME,OBJECT_TYPE,EPOCH,MEAN_MOTION,ECCENTRICITY,INCLINATION,RA_OF_ASC_NODE,ARG_OF_PERICENTER,MEAN_ANOMALY,BSTAR,MEAN_MOTION_DOT,MEAN_MOTION_DDOT,TLE_LINE0,TLE_LINE1,TLE_LINE2,SEMIMAJOR_AXIS,PERIOD,APOGEE,PERIGEE,DECAYED
53835.0,STARLINK-4783,PAYLOAD,2022-10-05 08:00:01,15.73212631,0.0001217,53.2146,178.1697,72.2308,42.7437,-0.00034133,-0.00048274,0.0,0 STARLINK-4783,1 53835U 22114T   22278.33334491 -.00048274  00000-0 -34133-3 0  9999,2 53835  53.2146 178.1697 0001217  72.2308  42.7437 15.73212631  3145,6727.859,91.532,350.543,348.905,0.0
53835.0,STARLINK-4783,PAYLOAD,2022-10-05 14:00:01,15.73162522,0.0001187,53.2146,176.9314,84.4905,7.2306,2.751e-05,3.237e-05,0.0,0 STARLINK-4783,1 53835U 22114T   22278.58335648  .00003237  00000-0  27510-4 0  9991,2 53835  53.2146 176.9314 0001187  84.4905   7.2306 15.73162522  1301,6728.002,91.535,350.666,349.0680000000001,0.0
53835.0,STARLINK-4783,PAYLOAD,2022-10-05 22:00:00,15.7314728,0.0001224,53.2149,175.2834,79.5016,101.0442,6.5824e-05,8.607e-05,0.0,0 STARLINK-4783,1 53835U 22114T   22278.91667824  .00008607  00000-0  65824-4 0  9998,2 53835  53.2149 175.2834 0001224  79.5016 101.0442 15.73147280  1301,6728.045,91.536,350.7340000000001,349.087,0.0
53835.0,STARLINK-4783,PAYLOAD,2022-10-06 06:00:00,15.73176815,0.0001137,53.2147,173.6346,75.30199999999998,194.1022,0.00062895,0.00088495,0.0,0 STARLINK-4783,1 53835U 22114T   22279.25001157  .00088495  00000-0  62895-3 0  9994,2 53835  53.2147 173.6346 0001137  75.3020 194.1022 15.73176815  3283,6727.9609999999975,91.535,350.591,349.061,0.0
53835.0,STARLINK-4783,PAYLOAD,2022-10-06 14:00:01,15.73202707,0.0001408,53.2173,171.9879,83.3322,274.9749,1.6773e-05,1.735e-05,0.0,0 STARLINK-4783,1 53835U 22114T   22279.58334491  .00001735  00000-0  16773-4 0  9997,2 53835  53.2173 171.9879 0001408  83.3322 274.9749 15.73202707  1303,6727.887,91.533,350.7,348.805,0.0
53835.0,STARLINK-4783,PAYLOAD,2022-10-06 22:42:55,15.73202374,0.0001465,53.2175,170.1928,79.3307,176.733,2.4981e-05,2.887e-05,0.0,0 STARLINK-4783,1 53835U 22114T   22279.94646991  .00002887  00000-0  24981-4 0  9997,2 53835  53.2175 170.1928 0001465  79.3307 176.7330 15.73202374  1307,6727.888000000001,91.533,350.73900000000015,348.76800000000014,0.0
53835.0,STARLINK-4783,PAYLOAD,2022-10-07 00:00:00,15.73204122,0.000148,53.2175,169.928,79.9231,119.5499,1.8762e-06,-3.57e-06,0.0,0 STARLINK-4783,1 53835U 22114T   22280.00001157 -.00000357  00000-0  18762-5 0  9997,2 53835  53.2175 169.9280 0001480  79.9231 119.5499 15.73204122  3400,6727.8830000000025,91.533,350.744,348.75300000000016,0.0
53835.0,STARLINK-4783,PAYLOAD,2022-10-07 14:00:01,15.73202721,0.0001406999999999,53.2173,167.0392,84.0012,181.1086,1.9187e-05,2.074e-05,0.0,0 STARLINK-4783,1 53835U 22114T   22280.58334491  .00002074  00000-0  19187-4 0  9998,2 53835  53.2173 167.0392 0001407  84.0012 181.1086 15.73202721  1301,6727.887,91.533,350.699,348.806,0.0
53835.0,STARLINK-4783,PAYLOAD,2022-10-07 22:00:00,15.73277639,0.0001131,53.2149,165.3868,89.9961,264.1037,-0.00065631,-0.0009203,0.0,0 STARLINK-4783,1 53835U 22114T   22280.91667824 -.00092030  00000-0 -65631-3 0  9991,2 53835  53.2149 165.3868 0001131  89.9961 264.1037 15.73277639  3540,6727.674,91.529,350.3,348.778,0.0
53835.0,STARLINK-4783,PAYLOAD,2022-10-08 14:00:01,15.73102378,0.00013,53.2149,162.086,96.9683,75.0318,0.00076295,0.00107382,0.0,0 STARLINK-4783,1 53835U 22114T   22281.58334491  .00107382  00000-0  76295-3 0  9999,2 53835  53.2149 162.0860 0001300  96.9683  75.0318 15.73102378  1303,6728.174,91.539,350.913,349.164,0.0
53835.0,STARLINK-4783,PAYLOAD,2022-10-08 22:00:00,15.7317594,0.0001484,53.2173,160.4419,103.5495,157.3096,0.00032885,0.00045736,0.0,0 STARLINK-4783,1 53835U 22114T   22281.91667824  .00045736  00000-0  32885-3 0  9996,2 53835  53.2173 160.4419 0001484 103.5495 157.3096 15.73175940  3709,6727.964,91.535,350.827,348.83,0.0
53835.0,STARLINK-4783,PAYLOAD,2022-10-09 06:00:00,15.7323707,0.0001103,53.2145,158.7887,84.2371,265.5894,-9.8002e-05,-0.00014372,0.0,0 STARLINK-4783,1 53835U 22114T   22282.25001157 -.00014372  00000-0 -98002-4 0  9993,2 53835  53.2145 158.7887 0001103  84.2371 265.5894 15.73237070  3759,6727.7890000000025,91.531,350.397,348.912,0.0
53835.0,STARLINK-4783,PAYLOAD,2022-10-09 14:00:01,15.73209621,0.0001056,53.2145,157.1375,101.8426,336.9634,0.00015407,0.00021066,0.0,0 STARLINK-4783,1 53835U 22114T   22282.58334491  .00021066  00000-0  15407-3 0  9992,2 53835  53.2145 157.1375 0001056 101.8426 336.9634 15.73209621  1303,6727.868,91.533,350.4430000000001,349.022,0.0
53835.0,STARLINK-4783,PAYLOAD,2022-10-09 22:00:00,15.73209356,8.05e-05,53.2144,155.4899,88.6754,79.0843,-5.8933e-05,-8.884e-05,0.0,0 STARLINK-4783,1 53835U 22114T   22282.91667824 -.00008884  00000-0 -58933-4 0  9995,2 53835  53.2144 155.4899 0000805  88.6754  79.0843 15.73209356  1303,6727.868,91.533,350.275,349.19199999999995,0.0
53835.0,STARLINK-4783,PAYLOAD,2022-10-10 08:00:01,15.73291861,0.0001012,53.2158,153.4296,87.4213,281.4993,-0.0023283,-0.00316614,0.0,0 STARLINK-4783,1 53835U 22114T   22283.33334491 -.00316614  00000-0 -23283-2 0  9994,2 53835  53.2158 153.4296 0001012  87.4213 281.4993 15.73291861  3922,6727.6330000000025,91.528,350.17900000000014,348.81699999999995,0.0
53835.0,STARLINK-4783,PAYLOAD,2022-10-10 14:00:01,15.73247057,0.0001175,53.2147,152.1886,100.6876,245.0199,-1.0468e-05,-2.092e-05,0.0,0 STARLINK-4783,1 53835U 22114T   22283.58334491 -.00002092  00000-0 -10468-4 0  9996,2 53835  53.2147 152.1886 0001175 100.6876 245.0199 15.73247057  1306,6727.761,91.53,350.417,348.836,0.0
53835.0,STARLINK-4783,PAYLOAD,2022-10-10 22:00:01,15.73360164,0.0001324,53.216,150.5428,91.9951,342.7536,-0.0046567,-0.00612851,0.0,0 STARLINK-4783,1 53835U 22114T   22283.91668981 -.00612851  00000-0 -46567-2 0  9994,2 53835  53.2160 150.5428 0001324  91.9951 342.7536 15.73360164  4024,6727.439,91.524,350.194,348.413,0.0
53835.0,STARLINK-4783,PAYLOAD,2022-10-11 06:00:00,15.73180076,0.0001097,53.2151,148.8929,84.4566,79.0244,-0.00040339,-0.00056802,0.0,0 STARLINK-4783,1 53835U 22114T   22284.25001157 -.00056802  00000-0 -40339-3 0  9998,2 53835  53.2151 148.8929 0001097  84.4566  79.0244 15.73180076  4079,6727.9519999999975,91.534,350.555,349.079,0.0
53835.0,STARLINK-4783,PAYLOAD,2022-10-11 14:00:01,15.7312508,0.0001030999999999,53.2168,147.2437,94.4999,157.8603,0.00089429,0.00126384,0.0,0 STARLINK-4783,1 53835U 22114T   22284.58334491  .00126384  00000-0  89429-3 0  9998,2 53835  53.2168 147.2437 0001031  94.4999 157.8603 15.73125080  1304,6728.109,91.538,350.667,349.28,0.0
53835.0,STARLINK-4783,PAYLOAD,2022-10-11 22:00:00,15.7318324,0.0001085999999999,53.2137,145.5925,90.9158,250.3282,0.000159,0.00021736,0.0,0 STARLINK-4783,1 53835U 22114T   22284.91667824  .00021736  00000-0  15900-3 0  9992,2 53835  53.2137 145.5925 0001086  90.9158 250.3282 15.73183240  1305,6727.943,91.534,350.539,349.077,0.0
53835.0,STARLINK-4783,PAYLOAD,2022-10-12 06:00:00,15.73334859,0.0001107999999999,53.2151,143.9449,81.0199,349.1514,-0.0016849,-0.00232011,0.0,0 STARLINK-4783,1 53835U 22114T   22285.25001157 -.00232011  00000-0 -16849-2 0  9995,2 53835  53.2151 143.9449 0001108  81.0199 349.1514 15.73334859  4228,6727.511,91.525,350.121,348.63,0.0
53835.0,STARLINK-4783,PAYLOAD,2022-10-12 14:00:01,15.73101968,0.0001439,53.2165,142.2948,91.6379,67.5408,0.0011052999999999,0.00156769,0.0,0 STARLINK-4783,1 53835U 22114T   22285.58334491  .00156769  00000-0  11053-2 0  9996,2 53835  53.2165 142.2948 0001439  91.6379  67.5408 15.73101968  4285,6728.175,91.539,351.0080000000001,349.071,0.0
53835.0,STARLINK-4783,PAYLOAD,2022-10-12 22:00:00,15.7320421,0.0001571999999999,53.2175,140.6484,85.345,162.7114,-7.0569e-07,-7.19e-06,0.0,0 STARLINK-4783,1 53835U 22114T   22285.91667824 -.00000719  00000-0 -70569-6 0  9998,2 53835  53.2175 140.6484 0001572  85.3450 162.7114 15.73204210  4333,6727.8830000000025,91.533,350.806,348.691,0.0
53835.0,STARLINK-4783,PAYLOAD,2022-10-13 14:00:01,15.7346779,0.0001020999999999,53.2169,137.3462,90.9425,334.8321,-0.0026873,-0.00365987,0.0,0 STARLINK-4783,1 53835U 22114T   22286.58334491 -.00365987  00000-0 -26873-2 0  9999,2 53835  53.2169 137.3462 0001021  90.9425 334.8321 15.73467790  1308,6727.132,91.518,349.684,348.31,0.0
53835.0,STARLINK-4783,PAYLOAD,2022-10-13 22:00:00,15.73220358,9.91e-05,53.2174,135.6991,85.1956,69.6565,-0.00018786,-0.00026922,0.0,0 STARLINK-4783,1 53835U 22114T   22286.91667824 -.00026922  00000-0 -18786-3 0  9993,2 53835  53.2174 135.6991 0000991  85.1956  69.6565 15.73220358  1302,6727.837,91.532,350.369,349.035,0.0
53835.0,STARLINK-4783,PAYLOAD,2022-10-14 08:00:01,15.73287196,8.41e-05,53.2168,133.6333,104.7993,251.5808,-0.0042131999999999,-0.00556412,0.0,0 STARLINK-4783,1 53835U 22114T   22287.33335648 -.00556412  00000-0 -42132-2 0  9999,2 53835  53.2168 133.6333 0000841 104.7993 251.5808 15.73287196  4551,6727.647,91.528,350.077,348.946,0.0
53835.0,STARLINK-4783,PAYLOAD,2022-10-14 14:00:01,15.72831623,9.37e-05,53.2169,132.39700000000002,94.1829,238.7482,0.0040372,0.00598895,0.0,0 STARLINK-4783,1 53835U 22114T   22287.58334491  .00598895  00000-0  40372-2 0  9994,2 53835  53.2169 132.3970 0000937  94.1829 238.7482 15.72831623  1305,6728.946,91.555,351.441,350.18,0.0
53835.0,STARLINK-4783,PAYLOAD,2022-10-14 16:00:00,15.73156106,0.0001042,53.2171,131.9864,90.5393,354.4436,0.0005867,0.00082374,0.0,0 STARLINK-4783,1 53835U 22114T   22287.66667824  .00082374  00000-0  58670-3 0  9993,2 53835  53.2171 131.9864 0001042  90.5393 354.4436 15.73156106  4618,6728.02,91.536,350.586,349.184,0.0
53835.0,STARLINK-4783,PAYLOAD,2022-10-14 18:00:00,15.73205552,9.16e-05,53.2175,131.5749,89.3361,107.8582,-4.8829e-06,-1.305e-05,0.0,0 STARLINK-4783,1 53835U 22114T   22287.75001157 -.00001305  00000-0 -48829-5 0  9998,2 53835  53.2175 131.5749 0000916  89.3361 107.8582 15.73205552  1305,6727.879,91.533,350.361,349.12800000000016,0.0
